start=new Date('2021-10-01T00:00:00.000Z').valueOf();
sats=[{"CLASSIFICATION_TYPE":"U","GP_ID":"185858435","APOAPSIS":"548.487","EPOCH":"2021-09-30T09:09:55.435968","PERIOD":"95.592","RCS_SIZE":"LARGE","ARG_OF_PERICENTER":"95.7856","SEMIMAJOR_AXIS":"6925.364","TIME_SYSTEM":"UTC","RA_OF_ASC_NODE":"64.9536","MEAN_ANOMALY":"264.3340","REF_FRAME":"TEME","MEAN_ELEMENT_THEORY":"SGP4","EPHEMERIS_TYPE":"0","LAUNCH_DATE":"2020-01-07","FILE":"3136969","REV_AT_EPOCH":"9622","MEAN_MOTION_DDOT":"0.0000000000000","OBJECT_TYPE":"PAYLOAD","ELEMENT_SET_NO":"999","SITE":"AFETR","TLE_LINE2":"2 44931  53.0541  64.9536 0001817  95.7856 264.3340 15.06395063 96220","OBJECT_NAME":"STARLINK-1128","OBJECT_ID":"2020-001T","MEAN_MOTION":"15.06395063","NORAD_CAT_ID":"44931","PERIAPSIS":"545.970","BSTAR":"0.00000164740000","ECCENTRICITY":"0.00018170","COUNTRY_CODE":"US","TLE_LINE1":"1 44931U 20001T   21273.38189162 -.00000257  00000-0  16474-5 0  9999","DECAY_DATE":null,"CENTER_NAME":"EARTH","MEAN_MOTION_DOT":"-0.00000257","INCLINATION":"53.0541"},{"PERIAPSIS":"545.818","MEAN_MOTION":"15.06397773","OBJECT_ID":"2020-001U","NORAD_CAT_ID":"44932","TLE_LINE2":"2 44932  53.0563  64.6194 0002025  91.9664 268.1557 15.06397773 96726","SITE":"AFETR","OBJECT_NAME":"STARLINK-1130","MEAN_MOTION_DDOT":"0.0000000000000","OBJECT_TYPE":"PAYLOAD","ELEMENT_SET_NO":"999","MEAN_MOTION_DOT":"-0.00001117","INCLINATION":"53.0563","TLE_LINE1":"1 44932U 20001U   21273.45928037 -.00001117  00000-0 -56119-4 0  9996","DECAY_DATE":null,"CENTER_NAME":"EARTH","ECCENTRICITY":"0.00020250","COUNTRY_CODE":"US","BSTAR":"-0.00005611900000","EPHEMERIS_TYPE":"0","MEAN_ELEMENT_THEORY":"SGP4","MEAN_ANOMALY":"268.1557","REF_FRAME":"TEME","REV_AT_EPOCH":"9672","LAUNCH_DATE":"2020-01-07","FILE":"3136969","SEMIMAJOR_AXIS":"6925.355","ARG_OF_PERICENTER":"91.9664","RCS_SIZE":"LARGE","PERIOD":"95.592","APOAPSIS":"548.623","EPOCH":"2021-09-30T11:01:21.823968","RA_OF_ASC_NODE":"64.6194","TIME_SYSTEM":"UTC","CLASSIFICATION_TYPE":"U","GP_ID":"185859686"},{"RA_OF_ASC_NODE":"64.7911","TIME_SYSTEM":"UTC","SEMIMAJOR_AXIS":"6925.355","ARG_OF_PERICENTER":"96.2893","RCS_SIZE":"LARGE","PERIOD":"95.592","EPOCH":"2021-09-30T10:02:59.465184","APOAPSIS":"548.409","GP_ID":"185859437","CLASSIFICATION_TYPE":"U","MEAN_MOTION_DOT":"0.00001349","INCLINATION":"53.0550","TLE_LINE1":"1 44933U 20001V   21273.41874381  .00001349  00000-0  10945-3 0  9996","DECAY_DATE":null,"CENTER_NAME":"EARTH","COUNTRY_CODE":"US","ECCENTRICITY":"0.00017170","BSTAR":"0.00010945000000","PERIAPSIS":"546.031","OBJECT_ID":"2020-001V","MEAN_MOTION":"15.06397962","NORAD_CAT_ID":"44933","TLE_LINE2":"2 44933  53.0550  64.7911 0001717  96.2893 263.8292 15.06397962 96773","SITE":"AFETR","OBJECT_NAME":"STARLINK-1144","MEAN_MOTION_DDOT":"0.0000000000000","OBJECT_TYPE":"PAYLOAD","ELEMENT_SET_NO":"999","REV_AT_EPOCH":"9677","LAUNCH_DATE":"2020-01-07","FILE":"3136969","EPHEMERIS_TYPE":"0","MEAN_ELEMENT_THEORY":"SGP4","MEAN_ANOMALY":"263.8292","REF_FRAME":"TEME"},{"RCS_SIZE":"LARGE","SEMIMAJOR_AXIS":"6925.350","ARG_OF_PERICENTER":"103.9169","APOAPSIS":"548.237","EPOCH":"2021-09-30T18:19:16.056192","PERIOD":"95.592","RA_OF_ASC_NODE":"43.2442","TIME_SYSTEM":"UTC","CLASSIFICATION_TYPE":"U","GP_ID":"185866398","OBJECT_ID":"2020-001W","MEAN_MOTION":"15.06399684","NORAD_CAT_ID":"44934","PERIAPSIS":"546.192","MEAN_MOTION_DDOT":"0.0000000000000","OBJECT_TYPE":"PAYLOAD","ELEMENT_SET_NO":"999","SITE":"AFETR","TLE_LINE2":"2 44934  53.0544  43.2442 0001477 103.9169 256.1984 15.06399684 95813","OBJECT_NAME":"STARLINK-1071","DECAY_DATE":null,"TLE_LINE1":"1 44934U 20001W   21273.76338028  .00002691  00000-0  19951-3 0  9995","CENTER_NAME":"EARTH","INCLINATION":"53.0544","MEAN_MOTION_DOT":"0.00002691","BSTAR":"0.00019951000000","ECCENTRICITY":"0.00014770","COUNTRY_CODE":"US","MEAN_ELEMENT_THEORY":"SGP4","EPHEMERIS_TYPE":"0","MEAN_ANOMALY":"256.1984","REF_FRAME":"TEME","LAUNCH_DATE":"2020-01-07","FILE":"3137100","REV_AT_EPOCH":"9581"},{"REF_FRAME":"TEME","MEAN_ANOMALY":"316.5246","EPHEMERIS_TYPE":"0","MEAN_ELEMENT_THEORY":"SGP4","REV_AT_EPOCH":"9600","FILE":"3137102","LAUNCH_DATE":"2020-01-07","OBJECT_NAME":"STARLINK-1072","TLE_LINE2":"2 44935  53.0543  29.0612 0001591  43.5897 316.5246 15.71454055 96008","SITE":"AFETR","OBJECT_TYPE":"PAYLOAD","ELEMENT_SET_NO":"999","MEAN_MOTION_DDOT":"0.0000000000000","PERIAPSIS":"353.671","OBJECT_ID":"2020-001X","MEAN_MOTION":"15.71454055","NORAD_CAT_ID":"44935","ECCENTRICITY":"0.00015910","COUNTRY_CODE":"US","BSTAR":"0.00002294700000","MEAN_MOTION_DOT":"0.00002387","INCLINATION":"53.0543","TLE_LINE1":"1 44935U 20001X   21273.60041142  .00002387  00000-0  22947-4 0  9999","DECAY_DATE":null,"CENTER_NAME":"EARTH","CLASSIFICATION_TYPE":"U","GP_ID":"185865935","PERIOD":"91.635","EPOCH":"2021-09-30T14:24:35.546688","APOAPSIS":"355.814","SEMIMAJOR_AXIS":"6732.878","ARG_OF_PERICENTER":"43.5897","RCS_SIZE":"LARGE","TIME_SYSTEM":"UTC","RA_OF_ASC_NODE":"29.0612"},{"TIME_SYSTEM":"UTC","RA_OF_ASC_NODE":"346.2445","EPOCH":"2021-09-30T16:51:16.452000","APOAPSIS":"330.997","PERIOD":"91.081","RCS_SIZE":"LARGE","ARG_OF_PERICENTER":"33.6550","SEMIMAJOR_AXIS":"6705.716","GP_ID":"185866440","CLASSIFICATION_TYPE":"U","BSTAR":"0.00229390000000","COUNTRY_CODE":"US","ECCENTRICITY":"0.00050940","TLE_LINE1":"1 44936U 20001Y   21273.70227375  .00481427  00000-0  22939-2 0  9990","DECAY_DATE":null,"CENTER_NAME":"EARTH","INCLINATION":"53.0617","MEAN_MOTION_DOT":"0.00481427","MEAN_MOTION_DDOT":"0.0000000000000","OBJECT_TYPE":"PAYLOAD","ELEMENT_SET_NO":"999","SITE":"AFETR","TLE_LINE2":"2 44936  53.0617 346.2445 0005094  33.6550 105.7260 15.81011421 96604","OBJECT_NAME":"STARLINK-1078","MEAN_MOTION":"15.81011421","OBJECT_ID":"2020-001Y","NORAD_CAT_ID":"44936","PERIAPSIS":"324.165","LAUNCH_DATE":"2020-01-07","FILE":"3137103","REV_AT_EPOCH":"9660","MEAN_ANOMALY":"105.7260","REF_FRAME":"TEME","MEAN_ELEMENT_THEORY":"SGP4","EPHEMERIS_TYPE":"0"},{"BSTAR":"0.00005238300000","ECCENTRICITY":"0.00014710","COUNTRY_CODE":"US","TLE_LINE1":"1 44937U 20001Z   21273.74127636  .00000499  00000-0  52383-4 0  9998","DECAY_DATE":null,"CENTER_NAME":"EARTH","MEAN_MOTION_DOT":"0.00000499","INCLINATION":"53.0550","ELEMENT_SET_NO":"999","OBJECT_TYPE":"PAYLOAD","MEAN_MOTION_DDOT":"0.0000000000000","OBJECT_NAME":"STARLINK-1079","TLE_LINE2":"2 44937  53.0550  43.3522 0001471 106.1489 253.9662 15.06400226 95810","SITE":"AFETR","NORAD_CAT_ID":"44937","OBJECT_ID":"2020-001Z","MEAN_MOTION":"15.06400226","PERIAPSIS":"546.194","FILE":"3137103","LAUNCH_DATE":"2020-01-07","REV_AT_EPOCH":"9581","REF_FRAME":"TEME","MEAN_ANOMALY":"253.9662","MEAN_ELEMENT_THEORY":"SGP4","EPHEMERIS_TYPE":"0","TIME_SYSTEM":"UTC","RA_OF_ASC_NODE":"43.3522","APOAPSIS":"548.232","EPOCH":"2021-09-30T17:47:26.277504","PERIOD":"95.592","RCS_SIZE":"LARGE","ARG_OF_PERICENTER":"106.1489","SEMIMAJOR_AXIS":"6925.348","GP_ID":"185865941","CLASSIFICATION_TYPE":"U"},{"FILE":"3136969","LAUNCH_DATE":"2020-01-07","REV_AT_EPOCH":"9577","MEAN_ELEMENT_THEORY":"SGP4","EPHEMERIS_TYPE":"0","REF_FRAME":"TEME","MEAN_ANOMALY":"248.5847","DECAY_DATE":null,"TLE_LINE1":"1 44938U 20001AA  21273.50904304  .00001199  00000-0  99391-4 0  9996","CENTER_NAME":"EARTH","MEAN_MOTION_DOT":"0.00001199","INCLINATION":"53.0554","BSTAR":"0.00009939100000","ECCENTRICITY":"0.00014400","COUNTRY_CODE":"US","MEAN_MOTION":"15.06404042","OBJECT_ID":"2020-001AA","NORAD_CAT_ID":"44938","PERIAPSIS":"546.204","ELEMENT_SET_NO":"999","OBJECT_TYPE":"PAYLOAD","MEAN_MOTION_DDOT":"0.0000000000000","OBJECT_NAME":"STARLINK-1082","TLE_LINE2":"2 44938  53.0554  44.3838 0001440 111.5295 248.5847 15.06404042 95777","SITE":"AFETR","GP_ID":"185858186","CLASSIFICATION_TYPE":"U","RA_OF_ASC_NODE":"44.3838","TIME_SYSTEM":"UTC","RCS_SIZE":"LARGE","SEMIMAJOR_AXIS":"6925.336","ARG_OF_PERICENTER":"111.5295","APOAPSIS":"548.198","EPOCH":"2021-09-30T12:13:01.318656","PERIOD":"95.592"},{"REV_AT_EPOCH":"9579","LAUNCH_DATE":"2020-01-07","FILE":"3137103","EPHEMERIS_TYPE":"0","MEAN_ELEMENT_THEORY":"SGP4","MEAN_ANOMALY":"251.3847","REF_FRAME":"TEME","INCLINATION":"53.0570","MEAN_MOTION_DOT":"-0.00000962","CENTER_NAME":"EARTH","TLE_LINE1":"1 44939U 20001AB  21273.64911791 -.00000962  00000-0 -45715-4 0  9990","DECAY_DATE":null,"COUNTRY_CODE":"US","ECCENTRICITY":"0.00013170","BSTAR":"-0.00004571500000","PERIAPSIS":"546.311","MEAN_MOTION":"15.06396894","OBJECT_ID":"2020-001AB","NORAD_CAT_ID":"44939","SITE":"AFETR","TLE_LINE2":"2 44939  53.0570  43.7669 0001317 108.7285 251.3847 15.06396894 95790","OBJECT_NAME":"STARLINK-1083","MEAN_MOTION_DDOT":"0.0000000000000","ELEMENT_SET_NO":"999","OBJECT_TYPE":"PAYLOAD","CLASSIFICATION_TYPE":"U","GP_ID":"185866449","RA_OF_ASC_NODE":"43.7669","TIME_SYSTEM":"UTC","ARG_OF_PERICENTER":"108.7285","SEMIMAJOR_AXIS":"6925.358","RCS_SIZE":"LARGE","PERIOD":"95.592","EPOCH":"2021-09-30T15:34:43.787424","APOAPSIS":"548.135"},{"TIME_SYSTEM":"UTC","RA_OF_ASC_NODE":"43.4078","APOAPSIS":"548.171","EPOCH":"2021-09-30T17:26:11.295168","PERIOD":"95.592","RCS_SIZE":"LARGE","SEMIMAJOR_AXIS":"6925.361","ARG_OF_PERICENTER":"104.2080","GP_ID":"185865969","CLASSIFICATION_TYPE":"U","BSTAR":"0.00004550300000","COUNTRY_CODE":"US","ECCENTRICITY":"0.00013640","DECAY_DATE":null,"TLE_LINE1":"1 44940U 20001AC  21273.72651962  .00000396  00000-0  45503-4 0  9996","CENTER_NAME":"EARTH","MEAN_MOTION_DOT":"0.00000396","INCLINATION":"53.0553","MEAN_MOTION_DDOT":"0.0000000000000","OBJECT_TYPE":"PAYLOAD","ELEMENT_SET_NO":"999","SITE":"AFETR","TLE_LINE2":"2 44940  53.0553  43.4078 0001364 104.2080 255.9060 15.06395839 95807","OBJECT_NAME":"STARLINK-1091","NORAD_CAT_ID":"44940","OBJECT_ID":"2020-001AC","MEAN_MOTION":"15.06395839","PERIAPSIS":"546.282","LAUNCH_DATE":"2020-01-07","FILE":"3137105","REV_AT_EPOCH":"9580","MEAN_ANOMALY":"255.9060","REF_FRAME":"TEME","MEAN_ELEMENT_THEORY":"SGP4","EPHEMERIS_TYPE":"0"}];
